$$SOE
2460728.500000000, A.D. 2025-Feb-22 00:00:00.0000, 1.104662719355196E+08, -2.549166682408294E+08, -1.030020350512922E+08,
2460735.500000000, A.D. 2025-Mar-01 00:00:00.0000, 1.223230467445074E+08, -2.503667303111124E+08, -1.022616427538904E+08,
2460742.500000000, A.D. 2025-Mar-08 00:00:00.0000, 1.339528108259938E+08, -2.453521446990051E+08, -1.013314455178412E+08,
2460749.500000000, A.D. 2025-Mar-15 00:00:00.0000, 1.453352680106920E+08, -2.398845712664237E+08, -1.002141426555548E+08,
2460756.500000000, A.D. 2025-Mar-22 00:00:00.0000, 1.564507662126958E+08, -2.339763503257821E+08, -9.891273682965361E+07,
2460763.500000000, A.D. 2025-Mar-29 00:00:00.0000, 1.672803159848773E+08, -2.276404698628668E+08, -9.743052286319962E+07,
2460770.500000000, A.D. 2025-Apr-05 00:00:00.0000, 1.778056087700698E+08, -2.208905322333050E+08, -9.577107660521010E+07,
2460777.500000000, A.D. 2025-Apr-12 00:00:00.0000, 1.880090330386508E+08, -2.137407203139912E+08, -9.393824370815077E+07,
2460784.500000000, A.D. 2025-Apr-19 00:00:00.0000, 1.978736882417266E+08, -2.062057640626376E+08, -9.193612840862209E+07,
2460791.500000000, A.D. 2025-Apr-26 00:00:00.0000, 2.073833969681360E+08, -1.983009077478430E+08, -8.976908238449828E+07,
2460798.500000000, A.D. 2025-May-03 00:00:00.0000, 2.165227155350246E+08, -1.900418778791291E+08, -8.744169372518945E+07,
2460805.500000000, A.D. 2025-May-10 00:00:00.0000, 2.252769431544704E+08, -1.814448518673764E+08, -8.495877604076687E+07,
2460812.500000000, A.D. 2025-May-17 00:00:00.0000, 2.336321298220119E+08, -1.725264274855396E+08, -8.232535773553234E+07,
2460819.500000000, A.D. 2025-May-24 00:00:00.0000, 2.415750832059981E+08, -1.633035931996178E+08, -7.954667148030736E+07,
2460826.500000000, A.D. 2025-May-31 00:00:00.0000, 2.490933750634371E+08, -1.537936990639741E+08, -7.662814390938042E+07,
2460833.500000000, A.D. 2025-Jun-07 00:00:00.0000, 2.561753468925886E+08, -1.440144269822678E+08, -7.357538542154436E+07,
2460840.500000000, A.D. 2025-Jun-14 00:00:00.0000, 2.628101125597472E+08, -1.339837610077247E+08, -7.039417993323302E+07,
2460847.500000000, A.D. 2025-Jun-21 00:00:00.0000, 2.689875592039045E+08, -1.237199609503655E+08, -6.709047496435370E+07,
2460854.500000000, A.D. 2025-Jun-28 00:00:00.0000, 2.746983496254644E+08, -1.132415375122560E+08, -6.367037219527304E+07,
2460861.500000000, A.D. 2025-Jul-05 00:00:00.0000, 2.799339247124846E+08, -1.025672267735125E+08, -6.014011817139308E+07,
2460868.500000000, A.D. 2025-Jul-12 00:00:00.0000, 2.846865047753865E+08, -9.171596480061835E+07, -5.650609510111853E+07,
2460875.500000000, A.D. 2025-Jul-19 00:00:00.0000, 2.889490900440071E+08, -8.070686290499483E+07, -5.277481180434228E+07,
2460882.500000000, A.D. 2025-Jul-26 00:00:00.0000, 2.927154606113279E+08, -6.955918356105183E+07, -4.895289483474077E+07,
2460889.500000000, A.D. 2025-Aug-02 00:00:00.0000, 2.959801759662778E+08, -5.829231692506330E+07, -4.504707978081906E+07,
2460896.500000000, A.D. 2025-Aug-09 00:00:00.0000, 2.987385742060958E+08, -4.692575793943524E+07, -4.106420274406817E+07,
2460903.500000000, A.D. 2025-Aug-16 00:00:00.0000, 3.009867710573951E+08, -3.547908405390286E+07, -3.701119199446727E+07,
2460910.500000000, A.D. 2025-Aug-23 00:00:00.0000, 3.027216590351626E+08, -2.397193350899118E+07, -3.289505981221538E+07,
2460917.500000000, A.D. 2025-Aug-30 00:00:00.0000, 3.039409070942901E+08, -1.242398341724304E+07, -2.872289446907409E+07,
2460924.500000000, A.D. 2025-Sep-06 00:00:00.0000, 3.046429593904211E+08, -8.549265839382717E+05, -2.450185212059398E+07,
2460931.500000000, A.D. 2025-Sep-13 00:00:00.0000, 3.048270315201268E+08, 1.071555049547365E+07, -2.023914864254060E+07,
2460938.500000000, A.D. 2025-Sep-20 00:00:00.0000, 3.044931075320584E+08, 2.226778685675427E+07, -1.594205182619412E+07,
2460945.500000000, A.D. 2025-Sep-27 00:00:00.0000, 3.036419387710044E+08, 3.378216666544691E+07, -1.161787375332980E+07,
2460952.500000000, A.D. 2025-Oct-04 00:00:00.0000, 3.022750425375479E+08, 4.523913978051737E+07, -7.273963100615934E+06,
2460959.500000000, A.D. 2025-Oct-11 00:00:00.0000, 3.003947001815416E+08, 5.661924239110667E+07, -2.917697397214372E+06,
2460966.500000000, A.D. 2025-Oct-18 00:00:00.0000, 2.980039549006172E+08, 6.790311750931060E+07, 1.443524731682539E+06,
2460973.500000000, A.D. 2025-Oct-25 00:00:00.0000, 2.951066093740074E+08, 7.907153539162679E+07, 5.802291336772330E+06,
2460980.500000000, A.D. 2025-Nov-01 00:00:00.0000, 2.917072232672340E+08, 9.010541396421611E+07, 1.015118494348641E+07,
2460987.500000000, A.D. 2025-Nov-08 00:00:00.0000, 2.878111106388898E+08, 1.009858392734054E+08, 1.448279038892854E+07,
2460994.500000000, A.D. 2025-Nov-15 00:00:00.0000, 2.834243373885485E+08, 1.116940859483002E+08, 1.878970269884089E+07,
2461001.500000000, A.D. 2025-Nov-22 00:00:00.0000, 2.785537191290641E+08, 1.222116379330273E+08, 2.306453500708891E+07,
2461008.500000000, A.D. 2025-Nov-29 00:00:00.0000, 2.732068192900163E+08, 1.325202106556802E+08, 2.729992664370837E+07,
2461015.500000000, A.D. 2025-Dec-06 00:00:00.0000, 2.673919451240407E+08, 1.426017745422309E+08, 3.148855160825556E+07,
2461022.500000000, A.D. 2025-Dec-13 00:00:00.0000, 2.611181420158724E+08, 1.524385765521448E+08, 3.562312713441245E+07,
2461029.500000000, A.D. 2025-Dec-20 00:00:00.0000, 2.543951895432339E+08, 1.620131607879577E+08, 3.969642212625413E+07,
2461036.500000000, A.D. 2025-Dec-27 00:00:00.0000, 2.472335981527528E+08, 1.713083907989345E+08, 4.370126579084805E+07,
2461043.500000000, A.D. 2026-Jan-03 00:00:00.0000, 2.396446049288400E+08, 1.803074729946644E+08, 4.763055656550784E+07,
2461050.500000000, A.D. 2026-Jan-10 00:00:00.0000, 2.316401685016433E+08, 1.889939805168947E+08, 5.147727128838433E+07,
2461057.500000000, A.D. 2026-Jan-17 00:00:00.0000, 2.232329632583858E+08, 1.973518774999534E+08, 5.523447459653415E+07,
2461064.500000000, A.D. 2026-Jan-24 00:00:00.0000, 2.144363728626821E+08, 2.053655437591975E+08, 5.889532855767928E+07,
2461071.500000000, A.D. 2026-Jan-31 00:00:00.0000, 2.052644830270178E+08, 2.130197999115547E+08, 6.245310254282261E+07,
2461078.500000000, A.D. 2026-Feb-07 00:00:00.0000, 1.957320735169527E+08, 2.202999328769683E+08, 6.590118333770543E+07,
2461085.500000000, A.D. 2026-Feb-14 00:00:00.0000, 1.858546095535100E+08, 2.271917217469044E+08, 6.923308547580780E+07,
2461092.500000000, A.D. 2026-Feb-21 00:00:00.0000, 1.756482329143820E+08, 2.336814645923000E+08, 7.244246181073089E+07,
2461099.500000000, A.D. 2026-Feb-28 00:00:00.0000, 1.651297515579886E+08, 2.397560073434131E+08, 7.552311452194983E+07,
2461106.500000000, A.D. 2026-Mar-07 00:00:00.0000, 1.543166256020392E+08, 2.454027727620085E+08, 7.846900657777376E+07,
2461113.500000000, A.D. 2026-Mar-14 00:00:00.0000, 1.432269523301894E+08, 2.506097871569762E+08, 8.127427321390755E+07,
2461120.500000000, A.D. 2026-Mar-21 00:00:00.0000, 1.318794519220892E+08, 2.553657077062432E+08, 8.393323350109898E+07,
2461127.500000000, A.D. 2026-Mar-28 00:00:00.0000, 1.202934517974370E+08, 2.596598513560839E+08, 8.644040225940041E+07,
2461134.500000000, A.D. 2026-Apr-04 00:00:00.0000, 1.084888688680235E+08, 2.634822242663128E+08, 8.879050228010397E+07,
2461141.500000000, A.D. 2026-Apr-11 00:00:00.0000, 9.648618987038854E+07, 2.668235513625742E+08, 9.097847677726819E+07,
2461148.500000000, A.D. 2026-Apr-18 00:00:00.0000, 8.430644983176234E+07, 2.696753058979238E+08, 9.299950202097736E+07,
2461155.500000000, A.D. 2026-Apr-25 00:00:00.0000, 7.197120860260314E+07, 2.720297389419109E+08, 9.484900011410923E+07,
2461162.500000000, A.D. 2026-May-02 00:00:00.0000, 5.950252537648590E+07, 2.738799086689026E+08, 9.652265187705493E+07,
2461169.500000000, A.D. 2026-May-09 00:00:00.0000, 4.692293122428996E+07, 2.752197092733165E+08, 9.801640979728800E+07,
2461176.500000000, A.D. 2026-May-16 00:00:00.0000, 3.425539993660929E+07, 2.760438995293050E+08, 9.932651099068640E+07,
2461183.500000000, A.D. 2026-May-23 00:00:00.0000, 2.152331715259539E+07, 2.763481318817672E+08, 1.004494902158890E+08,
2461190.500000000, A.D. 2026-May-30 00:00:00.0000, 8.750445636561805E+06, 2.761289822347042E+08, 1.013821931090435E+08,
2461197.500000000, A.D. 2026-Jun-06 00:00:00.0000, -4.039113674286846E+06, 2.753839769798831E+08, 1.021217893321809E+08,
2461204.500000000, A.D. 2026-Jun-13 00:00:00.0000, -1.682096125105810E+07, 2.741116172835138E+08, 1.026657852508408E+08,
2461211.500000000, A.D. 2026-Jun-20 00:00:00.0000, -2.957043972095513E+07, 2.723114033809398E+08, 1.030120363664219E+08,
2461218.500000000, A.D. 2026-Jun-27 00:00:00.0000, -4.226267749718332E+07, 2.699838583379088E+08, 1.031587595564359E+08,
2461225.500000000, A.D. 2026-Jul-04 00:00:00.0000, -5.487263529882145E+07, 2.671305502899778E+08, 1.031045449787883E+08,
2461232.500000000, A.D. 2026-Jul-11 00:00:00.0000, -6.737515529617037E+07, 2.637541128098781E+08, 1.028483675235281E+08,
2461239.500000000, A.D. 2026-Jul-18 00:00:00.0000, -7.974501275676225E+07, 2.598582632043608E+08, 1.023895977196146E+08,
2461246.500000000, A.D. 2026-Jul-25 00:00:00.0000, -9.195697011290184E+07, 2.554478185135732E+08, 1.017280120048033E+08,
2461253.500000000, A.D. 2026-Aug-01 00:00:00.0000, -1.039858333241009E+08, 2.505287089313421E+08, 1.008638022570155E+08,
2461260.500000000, A.D. 2026-Aug-08 00:00:00.0000, -1.158065102158917E+08, 2.451079883749795E+08, 9.979758446842360E+07,
2461267.500000000, A.D. 2026-Aug-15 00:00:00.0000, -1.273940702510175E+08, 2.391938424197639E+08, 9.853040646306826E+07,
2461274.500000000, A.D. 2026-Aug-22 00:00:00.0000, -1.387238063411874E+08, 2.327955945901473E+08, 9.706375473122692E+07,
2461281.500000000, A.D. 2026-Aug-29 00:00:00.0000, -1.497713008051328E+08, 2.259237094197673E+08, 9.539956038506395E+07,
2461288.500000000, A.D. 2026-Sep-05 00:00:00.0000, -1.605124931133989E+08, 2.185897891953766E+08, 9.354020370296896E+07,
2461295.500000000, A.D. 2026-Sep-12 00:00:00.0000, -1.709237467241090E+08, 2.108065666602666E+08, 9.148851713831609E+07,
$$EOE